OBJECT_NAME,OBJECT_ID,EPOCH,MEAN_MOTION,ECCENTRICITY,INCLINATION,RA_OF_ASC_NODE,ARG_OF_PERICENTER,MEAN_ANOMALY,EPHEMERIS_TYPE,CLASSIFICATION_TYPE,NORAD_CAT_ID,ELEMENT_SET_NO,REV_AT_EPOCH,BSTAR,MEAN_MOTION_DOT,MEAN_MOTION_DDOT
USA 167,2003-008A,2026-07-19T14:46:38.843040,1.00270673,.0003508,11.0243,43.1139,315.0292,39.1319,0,U,27691,999,709,0,-.5E-7,0
USA 169 (MILSTAR-2 4),2003-012A,2026-07-19T19:02:00.890304,1.00273148,.009946,12.3981,29.5725,10.4523,335.2177,0,U,27711,999,3327,0,-.206E-5,0
ASIASAT 4,2003-014A,2026-07-19T13:38:54.784032,1.00271629,.0002808,4.7836,75.3356,43.7383,170.5596,0,U,27718,999,4562,0,-.229E-5,0
HELLAS-SAT 2,2003-020A,2026-07-19T19:58:25.478976,1.00272110,.0003931,7.4338,67.4901,83.8552,75.8402,0,U,27811,999,4317,0,-.92E-6,0
THURAYA-2,2003-026A,2026-07-19T17:49:38.769312,1.00273173,.0002308,8.8878,31.8206,28.0150,189.1137,0,U,27825,999,8467,0,.117E-5,0
OPTUS C1,2003-028B,2026-07-19T15:06:26.265024,1.00269237,.0005366,6.9689,69.0133,44.4643,206.1979,0,U,27831,999,5338,0,-.16E-5,0
USA 170,2003-040A,2026-07-19T15:55:32.556000,1.00276626,.0001925,10.5683,47.6345,78.9715,74.0274,0,U,27875,999,3332,0,.117E-5,0
GALAXY 13 (HORIZONS-1),2003-044A,2026-07-19T17:35:45.405888,1.00273319,.0002095,1.5003,83.4402,38.3181,289.6919,0,U,27954,999,4689,0,.128E-5,0
YAMAL 202,2003-053A,2026-07-19T15:12:01.683648,1.00271624,.0003152,6.4217,70.5408,46.5266,211.8867,0,U,28089,999,8302,0,-.88E-6,0
UFO 11 (USA 174),2003-057A,2026-07-19T15:58:11.862048,1.00270725,.0002786,8.9547,33.6454,101.7964,117.1107,0,U,28117,999,8277,0,-.112E-5,0
USA 176 (DSP 22),2004-004A,2026-07-19T09:31:13.094112,1.00264768,.00010943,12.1055,25.8289,305.8985,58.7131,0,U,28158,999,3326,0,-.306E-5,0
ABS-4 (MOBISAT-1),2004-007A,2026-07-19T18:43:38.447904,1.00274537,.0004552,6.1207,71.6054,50.9293,156.9281,0,U,28184,999,5266,0,.32E-6,0
INTELSAT 10-02,2004-022A,2026-07-19T19:13:38.515872,1.00271375,.0000163,0.0539,254.2814,312.6618,18.0434,0,U,28358,999,8088,0,-.15E-6,0
ANIK F2,2004-027A,2026-07-19T12:38:57.473376,1.00271938,.0003687,3.3694,79.0152,34.1105,262.7954,0,U,28378,999,4158,0,-.56E-6,0
AMC-15,2004-041A,2026-07-19T14:38:38.662944,1.00271702,.0002337,0.0392,288.0509,187.5352,296.4144,0,U,28446,999,7962,0,-.93E-6,0
NSS-10,2005-003A,2026-07-19T11:17:20.370624,1.00272098,.00028187,6.5290,70.0587,44.0109,315.0673,0,U,28526,999,5347,0,-.259E-5,0
INMARSAT 4-F1,2005-009A,2026-07-19T19:09:22.682880,1.00272311,.0002727,5.2126,42.7957,74.5012,285.7209,0,U,28628,999,7799,0,.27E-6,0
DIRECTV 8,2005-019A,2026-07-19T14:46:38.843040,1.00272431,.0003079,0.0198,61.6366,61.9497,276.4168,0,U,28659,999,7739,0,-.3E-7,0
GALAXY 28 (G-28),2005-022A,2026-07-19T19:53:33.446112,1.00270977,.0002453,3.3795,78.5271,35.7801,94.5934,0,U,28702,999,5230,0,-.205E-5,0
THAICOM 4,2005-028A,2026-07-19T20:35:18.118176,1.00272304,.0001639,0.3278,85.5256,7.5536,272.8835,0,U,28786,999,5257,0,-.366E-5,0
ANIK F1R,2005-036A,2026-07-19T09:25:38.579232,1.00272042,.00039392,4.3932,76.1788,21.3290,233.7721,0,U,28868,999,4677,0,-.82E-6,0
SYRACUSE 3A,2005-041B,2026-07-19T20:14:27.617280,1.00270464,.0002645,4.7218,75.4350,35.0757,177.3604,0,U,28885,999,7607,0,.123E-5,0
INMARSAT 4-F2,2005-044A,2026-07-19T18:59:31.128000,1.00271206,.0002888,5.1378,43.6793,61.9307,260.3339,0,U,28899,999,7584,0,-.266E-5,0
METEOSAT-9 (MSG-2),2005-049B,2026-07-19T04:50:21.734016,1.00274349,.0002395,9.4322,53.8482,357.9817,3.4307,0,U,28912,999,732,0,.114E-5,0
EUTELSAT 174A,2005-052A,2026-07-19T19:08:07.804320,1.00272726,.0006017,4.2994,76.1236,42.5148,279.9214,0,U,28924,999,5265,0,.3E-7,0
ECHOSTAR 10,2006-003A,2026-07-19T14:38:38.662944,1.00271297,.0001622,0.0446,287.9657,150.0923,328.8109,0,U,28935,999,7478,0,-.59E-6,0
SPAINSAT,2006-007A,2026-07-19T06:12:45.343296,1.00273069,.0004862,0.6444,86.0183,28.0098,246.0049,0,U,28945,999,7454,0,-.222E-5,0
JCSAT-5A,2006-010A,2026-07-19T18:56:16.441152,1.00272213,.0001864,1.1917,83.8517,25.4852,244.3496,0,U,29045,999,7409,0,-.332E-5,0
ASTRA 1KR,2006-012A,2026-07-19T20:44:02.891040,1.00273010,.0003473,0.5563,83.1915,27.7124,156.7445,0,U,29055,999,4602,0,.115E-5,0
GALAXY 16 (G-16),2006-023A,2026-07-19T14:38:38.662944,1.00271621,.0002674,0.0249,142.1160,336.2625,299.6642,0,U,29236,999,7329,0,-.131E-5,0
EUTELSAT 33F,2006-032A,2026-07-19T21:01:21.030240,1.00274701,.0003594,1.7442,81.8795,32.8877,171.3128,0,U,29270,999,4763,0,.151E-5,0
JCSAT-3A,2006-033A,2026-07-19T19:24:45.573120,1.00271481,.0002275,0.0371,263.2349,219.2921,234.2595,0,U,29272,999,4806,0,-.348E-5,0
