USA 167                 
1 27691U 03008A   26200.61572735 -.00000005  00000+0  00000+0 0  9996
2 27691  11.0243  43.1139 0003508 315.0292  39.1319  1.00270673  7095
USA 169 (MILSTAR-2 4)   
1 27711U 03012A   26200.79306586 -.00000206  00000+0  00000+0 0  9995
2 27711  12.3981  29.5725 0099460  10.4523 335.2177  1.00273148 33276
ASIASAT 4               
1 27718U 03014A   26200.56868963 -.00000229  00000+0  00000+0 0  9996
2 27718   4.7836  75.3356 0002808  43.7383 170.5596  1.00271629 45628
HELLAS-SAT 2            
1 27811U 03020A   26200.83223934 -.00000092  00000+0  00000+0 0  9998
2 27811   7.4338  67.4901 0003931  83.8552  75.8402  1.00272110 43175
THURAYA-2               
1 27825U 03026A   26200.74280983  .00000117  00000+0  00000+0 0  9993
2 27825   8.8878  31.8206 0002308  28.0150 189.1137  1.00273173 84673
OPTUS C1                
1 27831U 03028B   26200.62947066 -.00000160  00000+0  00000+0 0  9990
2 27831   6.9689  69.0133 0005366  44.4643 206.1979  1.00269237 53381
USA 170                 
1 27875U 03040A   26200.66357125  .00000117  00000+0  00000+0 0  9998
2 27875  10.5683  47.6345 0001925  78.9715  74.0274  1.00276626 33322
GALAXY 13 (HORIZONS-1)  
1 27954U 03044A   26200.73316442  .00000128  00000+0  00000+0 0  9997
2 27954   1.5003  83.4402 0002095  38.3181 289.6919  1.00273319 46896
YAMAL 202               
1 28089U 03053A   26200.63335282 -.00000088  00000+0  00000+0 0  9995
2 28089   6.4217  70.5408 0003152  46.5266 211.8867  1.00271624 83022
UFO 11 (USA 174)        
1 28117U 03057A   26200.66541507 -.00000112  00000+0  00000+0 0  9991
2 28117   8.9547  33.6454 0002786 101.7964 117.1107  1.00270725 82776
USA 176 (DSP 22)        
1 28158U 04004A   26200.39667933 -.00000306  00000+0  00000+0 0  9996
2 28158  12.1055  25.8289 0001094 305.8985  58.7131  1.00264768 33269
ABS-4 (MOBISAT-1)       
1 28184U 04007A   26200.78030611  .00000032  00000+0  00000+0 0  9993
2 28184   6.1207  71.6054 0004552  50.9293 156.9281  1.00274537 52668
INTELSAT 10-02          
1 28358U 04022A   26200.80114023 -.00000015  00000+0  00000+0 0  9998
2 28358   0.0539 254.2814 0000163 312.6618  18.0434  1.00271375 80888
ANIK F2                 
1 28378U 04027A   26200.52705409 -.00000056  00000+0  00000+0 0  9993
2 28378   3.3694  79.0152 0003687  34.1105 262.7954  1.00271938 41581
AMC-15                  
1 28446U 04041A   26200.61016971 -.00000093  00000+0  00000+0 0  9995
2 28446   0.0392 288.0509 0002337 187.5352 296.4144  1.00271702 79622
NSS-10                  
1 28526U 05003A   26200.47037466 -.00000259  00000+0  00000+0 0  9993
2 28526   6.5290  70.0587 0002818  44.0109 315.0673  1.00272098 53474
INMARSAT 4-F1           
1 28628U 05009A   26200.79817920  .00000027  00000+0  00000+0 0  9990
2 28628   5.2126  42.7957 0002727  74.5012 285.7209  1.00272311 77997
DIRECTV 8               
1 28659U 05019A   26200.61572735 -.00000003  00000+0  00000+0 0  9993
2 28659   0.0198  61.6366 0003079  61.9497 276.4168  1.00272431 77393
GALAXY 28 (G-28)        
1 28702U 05022A   26200.82885933 -.00000205  00000+0  00000+0 0  9990
2 28702   3.3795  78.5271 0002453  35.7801  94.5934  1.00270977 52303
THAICOM 4               
1 28786U 05028A   26200.85784859 -.00000366  00000+0  00000+0 0  9994
2 28786   0.3278  85.5256 0001639   7.5536 272.8835  1.00272304 52572
ANIK F1R                
1 28868U 05036A   26200.39280763 -.00000082  00000+0  00000+0 0  9993
2 28868   4.3932  76.1788 0003939  21.3290 233.7721  1.00272042 46770
SYRACUSE 3A             
1 28885U 05041B   26200.84337520  .00000123  00000+0  00000+0 0  9997
2 28885   4.7218  75.4350 0002645  35.0757 177.3604  1.00270464 76075
INMARSAT 4-F2           
1 28899U 05044A   26200.79133250 -.00000266  00000+0  00000+0 0  9992
2 28899   5.1378  43.6793 0002888  61.9307 260.3339  1.00271206 75845
METEOSAT-9 (MSG-2)      
1 28912U 05049B   26200.20164044  .00000114  00000+0  00000+0 0  9995
2 28912   9.4322  53.8482 0002395 357.9817   3.4307  1.00274349  7322
EUTELSAT 174A           
1 28924U 05052A   26200.79731255  .00000003  00000+0  00000+0 0  9997
2 28924   4.2994  76.1236 0006017  42.5148 279.9214  1.00272726 52657
ECHOSTAR 10             
1 28935U 06003A   26200.61016971 -.00000059  00000+0  00000+0 0  9990
2 28935   0.0446 287.9657 0001622 150.0923 328.8109  1.00271297 74784
SPAINSAT                
1 28945U 06007A   26200.25885814 -.00000222  00000+0  00000+0 0  9997
2 28945   0.6444  86.0183 0004862  28.0098 246.0049  1.00273069 74544
JCSAT-5A                
1 29045U 06010A   26200.78907918 -.00000332  00000+0  00000+0 0  9993
2 29045   1.1917  83.8517 0001864  25.4852 244.3496  1.00272213 74098
ASTRA 1KR               
1 29055U 06012A   26200.86392235  .00000115  00000+0  00000+0 0  9993
2 29055   0.5563  83.1915 0003473  27.7124 156.7445  1.00273010 46027
GALAXY 16 (G-16)        
1 29236U 06023A   26200.61016971 -.00000131  00000+0  00000+0 0  9998
2 29236   0.0249 142.1160 0002674 336.2625 299.6642  1.00271621 73299
EUTELSAT 33F            
1 29270U 06032A   26200.87593785  .00000151  00000+0  00000+0 0  9998
2 29270   1.7442  81.8795 0003594  32.8877 171.3128  1.00274701 47639
JCSAT-3A                
1 29272U 06033A   26200.80886080 -.00000348  00000+0  00000+0 0  9996
2 29272   0.0371 263.2349 0002275 219.2921 234.2595  1.00271481 48068
